COSMOS 2251 DEB         
1 36626U 93036BEQ 17345.90385079  .00001287  00000-0  89780-4 0  9999
2 36626  74.0424  78.1926 0153993 174.9932 185.2841 14.97531868242687
